OBJECT_NAME,OBJECT_ID,EPOCH,MEAN_MOTION,ECCENTRICITY,INCLINATION,RA_OF_ASC_NODE,ARG_OF_PERICENTER,MEAN_ANOMALY,EPHEMERIS_TYPE,CLASSIFICATION_TYPE,NORAD_CAT_ID,ELEMENT_SET_NO,REV_AT_EPOCH,BSTAR,MEAN_MOTION_DOT,MEAN_MOTION_DDOT
ONEWEB-0230,2021-045C,2026-07-06T17:04:32.134656,13.15547911,.0001946,87.8990,255.3136,95.9605,264.1747,0,U,48769,999,24723,.24004E-3,.103E-5,0
ONEWEB-0237,2021-045D,2026-07-06T14:59:02.010048,13.15548053,.0002382,87.8988,255.3329,100.5243,259.6155,0,U,48770,999,24694,.25016E-3,.107E-5,0
ONEWEB-0235,2021-045E,2026-07-06T16:12:02.552256,13.15549903,.0002085,87.9000,255.3103,110.9004,249.2350,0,U,48771,999,24694,-.42773E-3,-.148E-5,0
ONEWEB-0242,2021-045F,2026-07-06T16:02:55.603104,13.15548228,.0001888,87.9003,255.3087,102.4441,257.6901,0,U,48772,999,24698,-.30347E-3,-.101E-5,0
ONEWEB-0241,2021-045G,2026-07-06T15:44:39.187968,13.15550229,.00023,87.8992,255.3272,108.3352,251.8029,0,U,48773,999,24689,-.20656E-4,.5E-7,0
ONEWEB-0243,2021-045H,2026-07-06T05:33:10.399968,13.15550687,.00016447,87.8988,255.4245,110.4690,249.6617,0,U,48774,999,24686,.504652E-5,.15E-6,0
ONEWEB-0222,2021-045J,2026-07-06T05:09:11.406240,13.15547740,.00021603,87.9001,255.3970,105.3324,254.8045,0,U,48775,999,24690,-.80569115E-3,-.29E-5,0
ONEWEB-0244,2021-045K,2026-07-06T05:46:51.683808,13.15547894,.00020025,87.9002,255.3875,102.7085,257.4269,0,U,48776,999,24747,.16375131E-3,.74E-6,0
ONEWEB-0247,2021-045L,2026-07-06T05:42:18.004896,13.15548787,.00017795,87.8988,255.4176,122.7377,237.3925,0,U,48777,999,24691,.4802392E-4,.31E-6,0
ONEWEB-0245,2021-045M,2026-07-06T05:35:26.684736,13.15548951,.00021995,87.8999,255.3995,103.0716,257.0660,0,U,48778,999,24688,-.2303927E-3,-.74E-6,0
ONEWEB-0229,2021-045N,2026-07-06T05:28:36.050592,13.15548033,.00019419,87.9000,255.3982,100.9562,259.1787,0,U,48779,999,24691,-.29606859E-3,-.99E-6,0
ONEWEB-0228,2021-045P,2026-07-06T06:16:43.313088,13.15548710,.00020265,87.9007,255.3852,101.1430,258.9929,0,U,48780,999,24683,.34139972E-3,.141E-5,0
ONEWEB-0232,2021-045Q,2026-07-06T05:40:01.009920,13.15547842,.00021546,87.9001,255.3910,99.8840,260.2534,0,U,48781,999,24715,.17388194E-3,.78E-6,0
ONEWEB-0231,2021-045R,2026-07-06T05:08:03.698880,13.15547530,.00020984,87.8997,255.4072,105.6966,254.4396,0,U,48782,999,24684,-.14155885E-3,-.4E-6,0
ONEWEB-0234,2021-045S,2026-07-06T06:02:37.840704,13.15547381,.00028607,87.9000,255.3818,93.9987,266.1470,0,U,48783,999,24698,.60017393E-3,.239E-5,0
ONEWEB-0238,2021-045T,2026-07-06T04:13:29.413632,13.15548002,.00024575,87.9004,255.3926,95.8477,264.2933,0,U,48784,999,24687,.42036638E-3,.171E-5,0
ONEWEB-0240,2021-045U,2026-07-06T06:33:37.995552,13.15549004,.00022454,87.9005,255.3827,106.1676,253.9701,0,U,48785,999,24691,.56412235E-4,.34E-6,0
ONEWEB-0246,2021-045V,2026-07-06T06:25:38.640576,13.15547521,.00019431,87.9003,255.3879,100.3493,259.7856,0,U,48786,999,24678,.15748179E-3,.72E-6,0
ONEWEB-0210,2021-045W,2026-07-06T05:49:08.262336,13.15547834,.00014645,87.9001,255.3904,120.6740,239.4535,0,U,48787,999,24682,.15267806E-3,.7E-6,0
ONEWEB-0214,2021-045X,2026-07-06T06:01:39.675360,13.15550266,.00016871,87.9001,255.3854,97.4029,262.7294,0,U,48788,999,24679,.35031954E-3,.145E-5,0
ONEWEB-0221,2021-045Y,2026-07-06T06:11:57.849216,13.15547712,.00020456,87.9002,255.3925,104.4596,255.6761,0,U,48789,999,24688,.27811698E-3,.118E-5,0
ONEWEB-0213,2021-045Z,2026-07-06T05:55:59.426976,13.15548562,.00019485,87.9001,255.3979,107.3644,252.7699,0,U,48790,999,24694,.34075849E-3,.141E-5,0
ONEWEB-0212,2021-045AA,2026-07-06T05:22:52.391136,13.15547087,.00020895,87.9000,255.3967,98.8205,261.3162,0,U,48791,999,24693,-.17784437E-3,-.54E-6,0
ONEWEB-0227,2021-045AB,2026-07-06T05:21:45.339552,13.15547900,.0002065,87.9001,255.3973,101.4821,258.6541,0,U,48792,999,24688,-.39233312E-3,-.135E-5,0
ONEWEB-0226,2021-045AC,2026-07-06T05:12:37.412352,13.15547716,.00018762,87.8999,255.4031,104.9531,255.1807,0,U,48793,999,24685,-.13537118E-3,-.38E-6,0
ONEWEB-0224,2021-045AD,2026-07-06T06:09:41.068512,13.15548779,.00029088,87.8989,255.4286,106.8227,253.3222,0,U,48794,999,24678,.37255278E-3,.153E-5,0
ONEWEB-0233,2021-045AE,2026-07-06T06:16:20.274528,13.15543356,.00020871,87.8991,255.4346,109.2772,250.8584,0,U,48795,999,24680,.30125065E-2,.1147E-4,0
ONEWEB-0190,2021-045AF,2026-07-06T05:58:16.205952,13.15548954,.00019833,87.8996,255.3999,118.9215,241.2115,0,U,48796,999,24687,.54209348E-3,.217E-5,0
ONEWEB-0236,2021-045AG,2026-07-06T04:33:51.065568,13.15548146,.00021655,87.8991,255.4202,96.9389,263.1988,0,U,48797,999,24675,.24351276E-3,.105E-5,0
ONEWEB-0248,2021-045AH,2026-07-06T04:52:05.941920,13.15548479,.00022575,87.9002,255.4030,110.9773,249.1599,0,U,48798,999,24691,.15672552E-4,.19E-6,0
